NORAD_CAT_ID,OBJECT_NAME,OBJECT_TYPE,EPOCH,MEAN_MOTION,ECCENTRICITY,INCLINATION,RA_OF_ASC_NODE,ARG_OF_PERICENTER,MEAN_ANOMALY,BSTAR,MEAN_MOTION_DOT,MEAN_MOTION_DDOT,TLE_LINE0,TLE_LINE1,TLE_LINE2,SEMIMAJOR_AXIS,PERIOD,APOGEE,PERIGEE,DECAYED
54199.0,STARLINK-5244,PAYLOAD,2024-03-01 08:13:19,15.08839405,0.000149,53.2164,68.6133,87.4222,272.694,5.9818e-05,6.64e-06,0.0,0 STARLINK-5244,1 54199U 22141AU  24061.34258473  .00000664  00000-0  59818-4 0  9998,2 54199  53.2164  68.6133 0001490  87.4222 272.6940 15.08839405 74539,6917.882,95.438,540.778,538.716,0.0
54199.0,STARLINK-5244,PAYLOAD,2024-03-01 17:45:37,15.08843264,0.0001497,53.2165,66.8289,87.2147,272.9016,9.1607e-05,1.17e-05,0.0,0 STARLINK-5244,1 54199U 22141AU  24061.74002154  .00001170  00000-0  91607-4 0  9990,2 54199  53.2165  66.8289 0001497  87.2147 272.9016 15.08843264 74820,6917.87,95.437,540.771,538.7,0.0
54199.0,STARLINK-5244,PAYLOAD,2024-03-02 06:28:42,15.08851105,0.0001438,53.2159,64.4499,90.4665,269.6492,0.00010707,1.417e-05,0.0,0 STARLINK-5244,1 54199U 22141AU  24062.26993620  .00001417  00000-0  10707-3 0  9990,2 54199  53.2159  64.4499 0001438  90.4665 269.6492 15.08851105 74673,6917.846,95.437,540.706,538.717,0.0
54199.0,STARLINK-5244,PAYLOAD,2024-03-03 03:08:43,15.08845295,0.0001539,53.2158,60.5837,83.3941,276.7226,0.00017475,2.495e-05,0.0,0 STARLINK-5244,1 54199U 22141AU  24063.13105729  .00002495  00000-0  17475-3 0  9998,2 54199  53.2158  60.5837 0001539  83.3941 276.7226 15.08845295 75033,6917.864,95.437,540.794,538.665,0.0
54199.0,STARLINK-5244,PAYLOAD,2024-03-03 09:30:15,15.08859435,0.0001841,53.2172,59.3894,113.708,246.4105,0.00034272,5.173e-05,0.0,0 STARLINK-5244,1 54199U 22141AU  24063.39600929  .00005173  00000-0  34272-3 0  9998,2 54199  53.2172  59.3894 0001841 113.7080 246.4105 15.08859435 75071,6917.821,95.436,540.96,538.412,0.0
54199.0,STARLINK-5244,PAYLOAD,2024-03-04 02:59:30,15.08844392,0.0001752,53.2178,56.1218,90.9242,269.1951,1.3736e-05,-6.9e-07,0.0,0 STARLINK-5244,1 54199U 22141AU  24064.12465639 -.00000069  00000-0  13736-4 0  9990,2 54199  53.2178  56.1218 0001752  90.9242 269.1951 15.08844392 75188,6917.867,95.437,540.944,538.52,0.0
54199.0,STARLINK-5244,PAYLOAD,2024-03-04 06:10:16,15.08842571,0.0001878,53.2171,55.5247,103.4432,256.6769,6.0245e-05,6.71e-06,0.0,0 STARLINK-5244,1 54199U 22141AU  24064.25713649  .00000671  00000-0  60245-4 0  9996,2 54199  53.2171  55.5247 0001878 103.4432 256.6769 15.08842571 74977,6917.873,95.437,541.037,538.438,0.0
54199.0,STARLINK-5244,PAYLOAD,2024-03-05 02:50:17,15.08832084,0.0001557,53.2167,51.6599,102.0397,258.0769,-0.00020488,-3.546e-05,0.0,0 STARLINK-5244,1 54199U 22141AU  24065.11826293 -.00003546  00000-0 -20488-3 0  9992,2 54199  53.2167  51.6599 0001557 102.0397 258.0769 15.08832084 75333,6917.905,95.438,540.847,538.692,0.0
54199.0,STARLINK-5244,PAYLOAD,2024-03-05 06:01:04,15.08828225,0.0001657,53.217,51.0661,86.9639,273.1543,-0.0001408,-2.527e-05,0.0,0 STARLINK-5244,1 54199U 22141AU  24065.25074688 -.00002527  00000-0 -14080-3 0  9999,2 54199  53.2170  51.0661 0001657  86.9639 273.1543 15.08828225 75128,6917.916,95.438,540.928,538.635,0.0
54199.0,STARLINK-5244,PAYLOAD,2024-03-06 04:16:28,15.08845482,0.0001365,53.2157,46.9027,90.0246,270.0902,0.00041572,6.335e-05,0.0,0 STARLINK-5244,1 54199U 22141AU  24066.17810668  .00006335  00000-0  41572-3 0  9992,2 54199  53.2157  46.9027 0001365  90.0246 270.0902 15.08845482 75497,6917.864,95.437,540.673,538.784,0.0
54199.0,STARLINK-5244,PAYLOAD,2024-03-06 07:27:14,15.08854676,0.0001361,53.216,46.3087,94.0007,266.1141,0.00068026,0.00010559,0.0,0 STARLINK-5244,1 54199U 22141AU  24066.31058457  .00010559  00000-0  68026-3 0  9994,2 54199  53.2160  46.3087 0001361  94.0007 266.1141 15.08854676 75289,6917.836,95.437,540.642,538.759,0.0
54199.0,STARLINK-5244,PAYLOAD,2024-03-07 04:07:15,15.08844708,0.0001416,53.2158,42.4417,100.7406,259.3746,0.00019997,2.896e-05,0.0,0 STARLINK-5244,1 54199U 22141AU  24067.17170651  .00002896  00000-0  19997-3 0  9998,2 54199  53.2158  42.4417 0001416 100.7406 259.3746 15.08844708 75649,6917.866,95.437,540.711,538.751,0.0
54199.0,STARLINK-5244,PAYLOAD,2024-03-07 07:18:01,15.08841408,0.0001564,53.2165,41.8459,81.7435,278.3734,0.00012806,1.751e-05,0.0,0 STARLINK-5244,1 54199U 22141AU  24067.30418847  .00001751  00000-0  12806-3 0  9996,2 54199  53.2165  41.8459 0001564  81.7435 278.3734 15.08841408 75439,6917.876,95.437,540.823,538.659,0.0
54199.0,STARLINK-5244,PAYLOAD,2024-03-08 02:22:39,15.08838977,0.0001485,53.2158,38.2774,87.2861,272.8301,0.00011732,1.58e-05,0.0,0 STARLINK-5244,1 54199U 22141AU  24068.09907089  .00001580  00000-0  11732-3 0  9991,2 54199  53.2158  38.2774 0001485  87.2861 272.8301 15.08838977 75781,6917.884,95.438,540.776,538.721,0.0
54199.0,STARLINK-5244,PAYLOAD,2024-03-08 05:33:25,15.08842368,0.00016,53.2173,37.6829,84.4966,275.6208,9.8311e-05,1.277e-05,0.0,0 STARLINK-5244,1 54199U 22141AU  24068.23155020  .00001277  00000-0  98311-4 0  9999,2 54199  53.2173  37.6829 0001600  84.4966 275.6208 15.08842368 75579,6917.873,95.437,540.845,538.631,0.0
54199.0,STARLINK-5244,PAYLOAD,2024-03-08 21:27:17,15.08841902,0.0001475,53.2161,34.7117,88.8405,271.2756,0.00017676,2.526e-05,0.0,0 STARLINK-5244,1 54199U 22141AU  24068.89395086  .00002526  00000-0  17676-3 0  9991,2 54199  53.2161  34.7117 0001475  88.8405 271.2756 15.08841902 75674,6917.875,95.437,540.76,538.719,0.0
54199.0,STARLINK-5244,PAYLOAD,2024-03-09 03:48:49,15.08844974,0.000127,53.2149,33.5219,106.9043,253.2089,0.00019292,2.784e-05,0.0,0 STARLINK-5244,1 54199U 22141AU  24069.15890767  .00002784  00000-0  19292-3 0  9999,2 54199  53.2149  33.5219 0001270 106.9043 253.2089 15.08844974 75944,6917.865,95.437,540.609,538.852,0.0
54199.0,STARLINK-5244,PAYLOAD,2024-03-09 06:59:35,15.08853728,0.0001359,53.2157,32.9257,96.6225,263.4921,0.0003765,5.711e-05,0.0,0 STARLINK-5244,1 54199U 22141AU  24069.29138504  .00005711  00000-0  37650-3 0  9999,2 54199  53.2157  32.9257 0001359  96.6225 263.4921 15.08853728 75735,6917.838,95.437,540.644,538.763,0.0
54199.0,STARLINK-5244,PAYLOAD,2024-03-10 03:39:36,15.08839182,0.0001512,53.2176,29.0601,99.3302,260.7861,7.1438e-05,8.49e-06,0.0,0 STARLINK-5244,1 54199U 22141AU  24070.15250989  .00000849  00000-0  71438-4 0  9998,2 54199  53.2176  29.0601 0001512  99.3302 260.7861 15.08839182 76094,6917.883,95.438,540.794,538.702,0.0
54199.0,STARLINK-5244,PAYLOAD,2024-03-10 21:08:51,15.08836332,0.0001401,53.2165,25.7899,97.3,262.8152,5.3845e-05,5.69e-06,0.0,0 STARLINK-5244,1 54199U 22141AU  24070.88115179  .00000569  00000-0  53845-4 0  9990,2 54199  53.2165  25.7899 0001401  97.3000 262.8152 15.08836332 75970,6917.892,95.438,540.726,538.787,0.0
54199.0,STARLINK-5244,PAYLOAD,2024-03-11 06:41:09,15.08846598,0.0001606,53.2187,24.0059,106.7662,253.3507,4.3147e-05,3.99e-06,0.0,0 STARLINK-5244,1 54199U 22141AU  24071.27858617  .00000399  00000-0  43147-4 0  9990,2 54199  53.2187  24.0059 0001606 106.7662 253.3507 15.08846598 76267,6917.86,95.437,540.836,538.614,0.0
54199.0,STARLINK-5244,PAYLOAD,2024-03-11 20:59:38,15.08833725,0.0001581,53.218,21.3278,105.0256,255.0911,2.6414e-05,1.32e-06,0.0,0 STARLINK-5244,1 54199U 22141AU  24071.87475505  .00000132  00000-0  26414-4 0  9990,2 54199  53.2180  21.3278 0001581 105.0256 255.0911 15.08833725 76352,6917.9,95.438,540.858,538.671,0.0
54199.0,STARLINK-5244,PAYLOAD,2024-03-12 12:53:28,15.08854284,0.0001274,53.2172,18.3555,91.0403,269.0735,0.00022086,3.23e-05,0.0,0 STARLINK-5244,1 54199U 22141AU  24072.53713556  .00003230  00000-0  22086-3 0  9997,2 54199  53.2172  18.3555 0001274  91.0403 269.0735 15.08854284 76457,6917.837,95.437,540.583,538.82,0.0
54199.0,STARLINK-5244,PAYLOAD,2024-03-13 03:11:58,15.08832743,0.0001308,53.2181,15.6775,92.0778,268.0364,-1.0005e-05,-4.47e-06,0.0,0 STARLINK-5244,1 54199U 22141AU  24073.13331166 -.00000447  00000-0 -10005-4 0  9995,2 54199  53.2181  15.6775 0001308  92.0778 268.0364 15.08832743 76548,6917.903,95.438,540.672,538.863,0.0
54199.0,STARLINK-5244,PAYLOAD,2024-03-13 12:44:17,15.08826306,0.0001297,53.2183,13.8948,89.1151,270.999,-2.4094e-05,-6.71e-06,0.0,0 STARLINK-5244,1 54199U 22141AU  24073.53075871 -.00000671  00000-0 -24094-4 0  9999,2 54199  53.2183  13.8948 0001297  89.1151 270.9990 15.08826306 76377,6917.922,95.438,540.685,538.89,0.0
54199.0,STARLINK-5244,PAYLOAD,2024-03-14 04:38:08,15.08834608,0.0001637,53.2186,10.9191,81.5591,278.5586,1.4324e-05,-6e-07,0.0,0 STARLINK-5244,1 54199U 22141AU  24074.19315742 -.00000060  00000-0  14324-4 0  9992,2 54199  53.2186  10.9191 0001637  81.5591 278.5586 15.08834608 76706,6917.897,95.438,540.894,538.629,0.0
54199.0,STARLINK-5244,PAYLOAD,2024-03-15 04:28:55,15.08832652,0.0001381,53.2184,6.4605,84.1514,275.9636,0.00015768,2.222e-05,0.0,0 STARLINK-5244,1 54199U 22141AU  24075.18675358  .00002222  00000-0  15768-3 0  9997,2 54199  53.2184   6.4605 0001381  84.1514 275.9636 15.08832652 76629,6917.903,95.438,540.723,538.812,0.0
54199.0,STARLINK-5244,PAYLOAD,2024-03-16 02:44:19,15.08839492,0.0001505,53.2196,2.2972,85.1431,274.9733,0.00014018,1.944e-05,0.0,0 STARLINK-5244,1 54199U 22141AU  24076.11411569  .00001944  00000-0  14018-3 0  9990,2 54199  53.2196   2.2972 0001505  85.1431 274.9733 15.08839492 76996,6917.882,95.438,540.788,538.706,0.0
54199.0,STARLINK-5244,PAYLOAD,2024-03-16 18:38:11,15.08839798,0.0001615,53.2177,359.3337,68.5194,291.597,6.3083e-05,7.16e-06,0.0,0 STARLINK-5244,1 54199U 22141AU  24076.77652096  .00000716  00000-0  63083-4 0  9997,2 54199  53.2177 359.3337 0001615  68.5194 291.5970 15.08839798 76862,6917.881,95.438,540.863,538.629,0.0
54199.0,STARLINK-5244,PAYLOAD,2024-03-17 00:59:44,15.08838319,0.0001501,53.2185,358.1425,80.5694,279.5468,3.575e-05,2.81e-06,0.0,0 STARLINK-5244,1 54199U 22141AU  24077.04148252  .00000281  00000-0  35750-4 0  9999,2 54199  53.2185 358.1425 0001501  80.5694 279.5468 15.08838319 77136,6917.886,95.438,540.789,538.712,0.0
